GORIZONT 1 [-]          
1 11158U 78118A   23249.23748131 -.00000283  00000+0  00000+0 0  9992
2 11158  11.2007 187.8858 3349370 305.8689  27.3820  1.00251278112767
GORIZONT 2 [-]          
1 11440U 79062A   23250.73509671 -.00000237  00000+0  00000+0 0  9995
2 11440   8.2294 296.6877 0003743 266.0350 138.4517  1.00266440127867
GORIZONT 3 [-]          
1 11648U 79105A   23250.80431207 -.00000303  00000+0  00000+0 0  9994
2 11648   8.3963 298.2148 0013960 224.5263 213.0915  1.00220568112322
GORIZONT 4 [-]          
1 11841U 80049A   23250.42015751 -.00000075  00000+0  00000+0 0  9994
2 11841   9.5761 304.4031 0001361 233.9412 163.5789  0.98630224223522
GORIZONT 5 [-]          
1 13092U 82020A   23250.51996331 -.00000181  00000+0  00000+0 0  9995
2 13092  10.6128 309.8446 0034742 223.4980 126.3926  0.98532878111605
GORIZONT 6 [-]          
1 13624U 82103A   23250.46129481 -.00000278  00000+0  00000+0 0  9993
2 13624   9.5528 309.9796 0002047 219.4338 271.5608  1.00362221110786
GORIZONT 7 [-]          
1 14160U 83066A   23250.64131255 -.00000150  00000+0  00000+0 0  9999
2 14160  11.2960 319.7112 0008973 319.3133 129.5227  0.98349371144783
GORIZONT 8 [-]          
1 14532U 83118A   23251.06119715 -.00000174  00000+0  00000+0 0  9990
2 14532  11.4909 321.6274 0030734 161.0059 212.3441  0.98271083110585
GORIZONT 9 [-]          
1 14940U 84041A   23250.72202980  .00000014  00000+0  00000+0 0  9990
2 14940  10.6763 319.5616 0005587 221.9462 126.4054  1.00311285111775
GORIZONT 10 [-]         
1 15144U 84078A   23250.43358325  .00000059  00000+0  00000+0 0  9999
2 15144  10.7851 320.5862 0001544 200.9088 206.2418  1.00364075144419
GORIZONT 11 [-]         
1 15484U 85007A   23250.52292208 -.00000284  00000+0  00000+0 0  9997
2 15484  10.9850 322.6172 0005306 174.7225 178.7926  1.00247226142463
GORIZONT 12 [-]         
1 16769U 86044A   23250.78417354 -.00000054  00000+0  00000+0 0  9990
2 16769  11.6773 328.1017 0002942 218.9508 149.3445  1.00346126137103
GORIZONT 13 [-]         
1 17083U 86090A   23250.52884392 -.00000144  00000+0  00000+0 0  9993
2 17083  13.6345 335.4752 0011569 343.7215  48.3167  0.96727020108842
GORIZONT 14 [-]         
1 17969U 87040A   23250.81924339 -.00000076  00000+0  00000+0 0  9994
2 17969  12.4590 326.6908 0032816 184.5173 229.6695  0.97658182109968
GORIZONT 15 [-]         
1 19017U 88028A   23250.81924339 -.00000083  00000+0  00000+0 0  9995
2 19017  13.9701 338.1843 0038356 167.7808 237.2499  0.97827861109591
GORIZONT 16 [-]         
1 19397U 88071A   23250.37024454  .00000014  00000+0  00000+0 0  9997
2 19397  12.8139 336.8582 0013153  80.4030 302.5779  0.99967167128107
GORIZONT 17 [-]         
1 19765U 89004A   23250.12801345 -.00000254  00000+0  00000+0 0  9995
2 19765  13.4088 340.2742 0024418 145.4273 224.2756  0.99067801125535
GORIZONT 18 [-]         
1 20107U 89052A   23250.76577116  .00000032  00000+0  00000+0 0  9999
2 20107  13.4732 341.5081 0032665 324.9396  28.7817  0.99396783124332
GORIZONT 19 [-]         
1 20263U 89081A   23250.62480817 -.00000357  00000+0  00000+0 0  9991
2 20263  13.1913 340.6415 0005605 203.6464 134.4818  1.00229151 37175
GORIZONT 20 [-]         
1 20659U 90054A   23250.90049506  .00000066  00000+0  00000+0 0  9995
2 20659  13.6744 343.4372 0007959 181.2838 199.1736  1.00266347121522
GORIZONT 21 [-]         
1 20923U 90094A   23250.06205031 -.00000134  00000+0  00000+0 0  9994
2 20923  13.6997 344.1957 0007232 212.1217 158.2086  1.00293138120286
GORIZONT 22 [-]         
1 20953U 90102A   23249.58079150  .00000088  00000+0  00000+0 0  9990
2 20953  13.6637 344.6052 0001218  54.0027 206.0895  1.00167347120193
GORIZONT 23 [-]         
1 21533U 91046A   23250.16348505 -.00000121  00000+0  00000+0 0  9991
2 21533  14.4924 348.7979 0002673 287.0274  54.8683  0.98907822 36654
GORIZONT 24 [-]         
1 21759U 91074A   23250.75882838 -.00000047  00000+0  00000+0 0  9996
2 21759  14.6789 350.7454 0019301 230.4711 131.0718  0.98442105114988
GORIZONT 25 [-]         
1 21922U 92017A   23250.59073963 -.00000188  00000+0  00000+0 0  9995
2 21922  14.2129 350.0028 0028616  95.5809 277.4096  0.99860701114825
GORIZONT 26 [-]         
1 22041U 92043A   23250.26376872 -.00000127  00000+0  00000+0 0  9999
2 22041  14.4174 352.0691 0032096 240.8947 127.9012  0.99241602113417
GORIZONT 27 [-]         
1 22245U 92082A   23250.12923177 -.00000279  00000+0  00000+0 0  9997
2 22245  14.3297 351.5594 0009920  23.5654 341.1796  1.00197407116963
GORIZONT 28 [-]         
1 22880U 93069A   23250.73054399 -.00000247  00000+0  00000+0 0  9991
2 22880  14.5355 355.4876 0035851 144.2318 214.5670  0.99650154109024
GORIZONT 29 [-]         
1 22907U 93072A   23250.60246522  .00000002  00000+0  00000+0 0  9990
2 22907  14.4388 354.9062 0007498 354.2682  34.6326  1.00163122109029
GORIZONT 30 [-]         
1 23108U 94030A   23250.90188524 -.00000014  00000+0  00000+0 0  9993
2 23108  14.4642 355.7997 0003845 179.2231 202.4762  1.00152960107338
GORIZONT 31 [-]         
1 23775U 96005A   23250.77688425 -.00000168  00000+0  00000+0 0  9997
2 23775  14.4891   2.0996 0020151 208.7047 144.9102  0.99882493100921
GORIZONT 32 [-]         
1 23880U 96034A   23250.73402490 -.00000383  00000+0  00000+0 0  9997
2 23880  14.4471   2.5736 0006464   3.7658   6.8835  1.00176721 99885
GORIZONT 33 [-]         
1 26372U 00029A   23250.06448694 -.00000046  00000+0  00000+0 0  9993
2 26372  13.3590  14.0162 0003974 131.6608 221.6438  1.00298250 85258
